FENGYUN 1C DEB          
1 33731U 99025DHU 17344.85445215  .00001035  00000-0  86060-3 0  9997
2 33731  99.3202 297.6097 0143614 328.9808  57.1060 13.86392278498583
